[{"OBJECT_NAME":"ONEWEB-0176","OBJECT_ID":"2021-031A","EPOCH":"2025-10-06T02:20:52.329696","MEAN_MOTION":13.14503015,"ECCENTRICITY":0.000189,"INCLINATION":87.9062,"RA_OF_ASC_NODE":340.308,"ARG_OF_PERICENTER":103.2843,"MEAN_ANOMALY":256.8498,"EPHEMERIS_TYPE":0,"CLASSIFICATION_TYPE":"U","NORAD_CAT_ID":48210,"ELEMENT_SET_NO":999,"REV_AT_EPOCH":21493,"BSTAR":0.00046844,"MEAN_MOTION_DOT":1.86e-6,"MEAN_MOTION_DDOT":0},{"OBJECT_NAME":"ONEWEB-0184","OBJECT_ID":"2021-031B","EPOCH":"2025-10-06T03:31:39.441792","MEAN_MOTION":13.14504327,"ECCENTRICITY":0.0002014,"INCLINATION":87.9069,"RA_OF_ASC_NODE":340.272,"ARG_OF_PERICENTER":125.078,"MEAN_ANOMALY":235.0538,"EPHEMERIS_TYPE":0,"CLASSIFICATION_TYPE":"U","NORAD_CAT_ID":48211,"ELEMENT_SET_NO":999,"REV_AT_EPOCH":21491,"BSTAR":0.00045217,"MEAN_MOTION_DOT":1.8e-6,"MEAN_MOTION_DDOT":0},{"OBJECT_NAME":"ONEWEB-0179","OBJECT_ID":"2021-031C","EPOCH":"2025-10-06T04:39:00.070848","MEAN_MOTION":13.14501563,"ECCENTRICITY":0.0001948,"INCLINATION":87.906,"RA_OF_ASC_NODE":340.2767,"ARG_OF_PERICENTER":97.6056,"MEAN_ANOMALY":262.5296,"EPHEMERIS_TYPE":0,"CLASSIFICATION_TYPE":"U","NORAD_CAT_ID":48212,"ELEMENT_SET_NO":999,"REV_AT_EPOCH":21496,"BSTAR":-0.00019232,"MEAN_MOTION_DOT":-5.9e-7,"MEAN_MOTION_DDOT":0},{"OBJECT_NAME":"ONEWEB-0180","OBJECT_ID":"2021-031D","EPOCH":"2025-10-06T03:36:13.178592","MEAN_MOTION":13.14502055,"ECCENTRICITY":0.0002168,"INCLINATION":87.9069,"RA_OF_ASC_NODE":340.2773,"ARG_OF_PERICENTER":102.4689,"MEAN_ANOMALY":257.6683,"EPHEMERIS_TYPE":0,"CLASSIFICATION_TYPE":"U","NORAD_CAT_ID":48213,"ELEMENT_SET_NO":999,"REV_AT_EPOCH":21484,"BSTAR":0.00040327,"MEAN_MOTION_DOT":1.62e-6,"MEAN_MOTION_DDOT":0},{"OBJECT_NAME":"ONEWEB-0218","OBJECT_ID":"2021-031E","EPOCH":"2025-10-06T04:08:11.257728","MEAN_MOTION":13.14501447,"ECCENTRICITY":0.0002306,"INCLINATION":87.9072,"RA_OF_ASC_NODE":340.2736,"ARG_OF_PERICENTER":122.9758,"MEAN_ANOMALY":237.1594,"EPHEMERIS_TYPE":0,"CLASSIFICATION_TYPE":"U","NORAD_CAT_ID":48214,"ELEMENT_SET_NO":999,"REV_AT_EPOCH":21500,"BSTAR":0.00053165,"MEAN_MOTION_DOT":2.1e-6,"MEAN_MOTION_DDOT":0},{"OBJECT_NAME":"ONEWEB-0209","OBJECT_ID":"2021-031F","EPOCH":"2025-10-06T03:52:12.380160","MEAN_MOTION":13.14501814,"ECCENTRICITY":0.0002104,"INCLINATION":87.9064,"RA_OF_ASC_NODE":340.318,"ARG_OF_PERICENTER":97.9002,"MEAN_ANOMALY":262.2366,"EPHEMERIS_TYPE":0,"CLASSIFICATION_TYPE":"U","NORAD_CAT_ID":48215,"ELEMENT_SET_NO":999,"REV_AT_EPOCH":21500,"BSTAR":0.00066632,"MEAN_MOTION_DOT":2.6e-6,"MEAN_MOTION_DDOT":0},{"OBJECT_NAME":"ONEWEB-0198","OBJECT_ID":"2021-031G","EPOCH":"2025-10-06T03:29:33.615744","MEAN_MOTION":13.14502638,"ECCENTRICITY":0.0002269,"INCLINATION":87.9057,"RA_OF_ASC_NODE":340.3198,"ARG_OF_PERICENTER":107.3128,"MEAN_ANOMALY":252.825,"EPHEMERIS_TYPE":0,"CLASSIFICATION_TYPE":"U","NORAD_CAT_ID":48216,"ELEMENT_SET_NO":999,"REV_AT_EPOCH":21511,"BSTAR":0.00034471,"MEAN_MOTION_DOT":1.41e-6,"MEAN_MOTION_DDOT":0},{"OBJECT_NAME":"ONEWEB-0189","OBJECT_ID":"2021-031H","EPOCH":"2025-10-06T03:47:38.612256","MEAN_MOTION":13.14503099,"ECCENTRICITY":0.0002179,"INCLINATION":87.9059,"RA_OF_ASC_NODE":340.2904,"ARG_OF_PERICENTER":106.8136,"MEAN_ANOMALY":253.3233,"EPHEMERIS_TYPE":0,"CLASSIFICATION_TYPE":"U","NORAD_CAT_ID":48217,"ELEMENT_SET_NO":999,"REV_AT_EPOCH":21485,"BSTAR":0.00072506,"MEAN_MOTION_DOT":2.82e-6,"MEAN_MOTION_DDOT":0},{"OBJECT_NAME":"ONEWEB-0196","OBJECT_ID":"2021-031J","EPOCH":"2025-10-06T05:05:16.480320","MEAN_MOTION":13.14502336,"ECCENTRICITY":0.0002058,"INCLINATION":87.9055,"RA_OF_ASC_NODE":340.2951,"ARG_OF_PERICENTER":101.081,"MEAN_ANOMALY":259.0551,"EPHEMERIS_TYPE":0,"CLASSIFICATION_TYPE":"U","NORAD_CAT_ID":48218,"ELEMENT_SET_NO":999,"REV_AT_EPOCH":21486,"BSTAR":-0.00021598,"MEAN_MOTION_DOT":-6.7e-7,"MEAN_MOTION_DDOT":0},{"OBJECT_NAME":"ONEWEB-0183","OBJECT_ID":"2021-031K","EPOCH":"2025-10-06T04:28:44.355072","MEAN_MOTION":13.14501116,"ECCENTRICITY":0.0001938,"INCLINATION":87.9058,"RA_OF_ASC_NODE":340.3091,"ARG_OF_PERICENTER":92.6407,"MEAN_ANOMALY":267.4945,"EPHEMERIS_TYPE":0,"CLASSIFICATION_TYPE":"U","NORAD_CAT_ID":48219,"ELEMENT_SET_NO":999,"REV_AT_EPOCH":21495,"BSTAR":-0.00019081,"MEAN_MOTION_DOT":-5.8e-7,"MEAN_MOTION_DDOT":0},{"OBJECT_NAME":"ONEWEB-0185","OBJECT_ID":"2021-031L","EPOCH":"2025-10-06T05:06:24.809760","MEAN_MOTION":13.1450366,"ECCENTRICITY":0.0002231,"INCLINATION":87.9057,"RA_OF_ASC_NODE":340.2714,"ARG_OF_PERICENTER":92.9319,"MEAN_ANOMALY":267.2066,"EPHEMERIS_TYPE":0,"CLASSIFICATION_TYPE":"U","NORAD_CAT_ID":48220,"ELEMENT_SET_NO":999,"REV_AT_EPOCH":21488,"BSTAR":-0.00015244,"MEAN_MOTION_DOT":-4.4e-7,"MEAN_MOTION_DDOT":0},{"OBJECT_NAME":"ONEWEB-0187","OBJECT_ID":"2021-031M","EPOCH":"2025-10-06T04:37:41.371680","MEAN_MOTION":13.14502893,"ECCENTRICITY":0.0002162,"INCLINATION":87.906,"RA_OF_ASC_NODE":340.3217,"ARG_OF_PERICENTER":98.5629,"MEAN_ANOMALY":261.5746,"EPHEMERIS_TYPE":0,"CLASSIFICATION_TYPE":"U","NORAD_CAT_ID":48221,"ELEMENT_SET_NO":999,"REV_AT_EPOCH":21489,"BSTAR":-0.00029257,"MEAN_MOTION_DOT":-9.6e-7,"MEAN_MOTION_DDOT":0},{"OBJECT_NAME":"ONEWEB-0192","OBJECT_ID":"2021-031N","EPOCH":"2025-10-06T03:54:29.190240","MEAN_MOTION":13.14501341,"ECCENTRICITY":0.0001891,"INCLINATION":87.906,"RA_OF_ASC_NODE":340.3205,"ARG_OF_PERICENTER":101.4194,"MEAN_ANOMALY":258.7148,"EPHEMERIS_TYPE":0,"CLASSIFICATION_TYPE":"U","NORAD_CAT_ID":48222,"ELEMENT_SET_NO":999,"REV_AT_EPOCH":21480,"BSTAR":0.00080284,"MEAN_MOTION_DOT":3.1e-6,"MEAN_MOTION_DDOT":0},{"OBJECT_NAME":"ONEWEB-0219","OBJECT_ID":"2021-031P","EPOCH":"2025-10-06T03:24:47.991168","MEAN_MOTION":13.14501488,"ECCENTRICITY":0.0002112,"INCLINATION":87.9062,"RA_OF_ASC_NODE":340.2975,"ARG_OF_PERICENTER":96.2001,"MEAN_ANOMALY":263.9369,"EPHEMERIS_TYPE":0,"CLASSIFICATION_TYPE":"U","NORAD_CAT_ID":48223,"ELEMENT_SET_NO":999,"REV_AT_EPOCH":21500,"BSTAR":4.6733e-5,"MEAN_MOTION_DOT":3.0e-7,"MEAN_MOTION_DDOT":0},{"OBJECT_NAME":"ONEWEB-0202","OBJECT_ID":"2021-031Q","EPOCH":"2025-10-06T04:47:00.531744","MEAN_MOTION":13.14501698,"ECCENTRICITY":0.0002329,"INCLINATION":87.906,"RA_OF_ASC_NODE":340.3003,"ARG_OF_PERICENTER":115.5903,"MEAN_ANOMALY":244.5468,"EPHEMERIS_TYPE":0,"CLASSIFICATION_TYPE":"U","NORAD_CAT_ID":48224,"ELEMENT_SET_NO":999,"REV_AT_EPOCH":21499,"BSTAR":-0.00033806,"MEAN_MOTION_DOT":-1.13e-6,"MEAN_MOTION_DDOT":0},{"OBJECT_NAME":"ONEWEB-0204","OBJECT_ID":"2021-031R","EPOCH":"2025-10-06T03:46:29.374752","MEAN_MOTION":13.14502518,"ECCENTRICITY":0.0001909,"INCLINATION":87.9054,"RA_OF_ASC_NODE":340.2973,"ARG_OF_PERICENTER":89.5936,"MEAN_ANOMALY":270.5412,"EPHEMERIS_TYPE":0,"CLASSIFICATION_TYPE":"U","NORAD_CAT_ID":48225,"ELEMENT_SET_NO":999,"REV_AT_EPOCH":21488,"BSTAR":0.00074849,"MEAN_MOTION_DOT":2.9e-6,"MEAN_MOTION_DDOT":0},{"OBJECT_NAME":"ONEWEB-0205","OBJECT_ID":"2021-031S","EPOCH":"2025-10-06T05:00:42.557760","MEAN_MOTION":13.14502358,"ECCENTRICITY":0.0002091,"INCLINATION":87.9057,"RA_OF_ASC_NODE":340.279,"ARG_OF_PERICENTER":97.7328,"MEAN_ANOMALY":262.4039,"EPHEMERIS_TYPE":0,"CLASSIFICATION_TYPE":"U","NORAD_CAT_ID":48226,"ELEMENT_SET_NO":999,"REV_AT_EPOCH":21490,"BSTAR":-0.00038775,"MEAN_MOTION_DOT":-1.31e-6,"MEAN_MOTION_DDOT":0},{"OBJECT_NAME":"ONEWEB-0206","OBJECT_ID":"2021-031T","EPOCH":"2025-10-06T04:21:53.395200","MEAN_MOTION":13.14502406,"ECCENTRICITY":0.0001583,"INCLINATION":87.9069,"RA_OF_ASC_NODE":340.2688,"ARG_OF_PERICENTER":101.4267,"MEAN_ANOMALY":258.7041,"EPHEMERIS_TYPE":0,"CLASSIFICATION_TYPE":"U","NORAD_CAT_ID":48227,"ELEMENT_SET_NO":999,"REV_AT_EPOCH":21485,"BSTAR":7.4348e-5,"MEAN_MOTION_DOT":4.0e-7,"MEAN_MOTION_DDOT":0},{"OBJECT_NAME":"ONEWEB-0182","OBJECT_ID":"2021-031U","EPOCH":"2025-10-06T02:25:25.790016","MEAN_MOTION":13.14501673,"ECCENTRICITY":0.0001925,"INCLINATION":87.9058,"RA_OF_ASC_NODE":340.3263,"ARG_OF_PERICENTER":91.5411,"MEAN_ANOMALY":268.594,"EPHEMERIS_TYPE":0,"CLASSIFICATION_TYPE":"U","NORAD_CAT_ID":48228,"ELEMENT_SET_NO":999,"REV_AT_EPOCH":21505,"BSTAR":0.000282,"MEAN_MOTION_DOT":1.17e-6,"MEAN_MOTION_DDOT":0},{"OBJECT_NAME":"ONEWEB-0186","OBJECT_ID":"2021-031V","EPOCH":"2025-10-06T04:31:00.856704","MEAN_MOTION":13.14500815,"ECCENTRICITY":0.0002011,"INCLINATION":87.9071,"RA_OF_ASC_NODE":340.274,"ARG_OF_PERICENTER":98.8533,"MEAN_ANOMALY":261.2824,"EPHEMERIS_TYPE":0,"CLASSIFICATION_TYPE":"U","NORAD_CAT_ID":48229,"ELEMENT_SET_NO":999,"REV_AT_EPOCH":21501,"BSTAR":-0.000198,"MEAN_MOTION_DOT":-6.1e-7,"MEAN_MOTION_DDOT":0},{"OBJECT_NAME":"ONEWEB-0181","OBJECT_ID":"2021-031W","EPOCH":"2025-10-06T03:59:03.630336","MEAN_MOTION":13.14501846,"ECCENTRICITY":0.0002003,"INCLINATION":87.9051,"RA_OF_ASC_NODE":340.3447,"ARG_OF_PERICENTER":102.4011,"MEAN_ANOMALY":257.7343,"EPHEMERIS_TYPE":0,"CLASSIFICATION_TYPE":"U","NORAD_CAT_ID":48230,"ELEMENT_SET_NO":999,"REV_AT_EPOCH":21486,"BSTAR":0.00079239,"MEAN_MOTION_DOT":3.07e-6,"MEAN_MOTION_DDOT":0},{"OBJECT_NAME":"ONEWEB-0188","OBJECT_ID":"2021-031X","EPOCH":"2025-10-06T04:53:51.119232","MEAN_MOTION":13.14502428,"ECCENTRICITY":0.0001904,"INCLINATION":87.9056,"RA_OF_ASC_NODE":340.3317,"ARG_OF_PERICENTER":97.3941,"MEAN_ANOMALY":262.7405,"EPHEMERIS_TYPE":0,"CLASSIFICATION_TYPE":"U","NORAD_CAT_ID":48231,"ELEMENT_SET_NO":999,"REV_AT_EPOCH":21477,"BSTAR":-0.00047852,"MEAN_MOTION_DOT":-1.65e-6,"MEAN_MOTION_DDOT":0},{"OBJECT_NAME":"ONEWEB-0220","OBJECT_ID":"2021-031Y","EPOCH":"2025-10-06T04:01:20.874144","MEAN_MOTION":13.14503702,"ECCENTRICITY":0.0002126,"INCLINATION":87.9068,"RA_OF_ASC_NODE":340.2789,"ARG_OF_PERICENTER":96.4779,"MEAN_ANOMALY":263.6593,"EPHEMERIS_TYPE":0,"CLASSIFICATION_TYPE":"U","NORAD_CAT_ID":48232,"ELEMENT_SET_NO":999,"REV_AT_EPOCH":21503,"BSTAR":0.00066136,"MEAN_MOTION_DOT":2.58e-6,"MEAN_MOTION_DDOT":0},{"OBJECT_NAME":"ONEWEB-0165","OBJECT_ID":"2021-031Z","EPOCH":"2025-10-06T04:42:26.390592","MEAN_MOTION":13.14501717,"ECCENTRICITY":0.000205,"INCLINATION":87.9047,"RA_OF_ASC_NODE":340.3102,"ARG_OF_PERICENTER":99.6841,"MEAN_ANOMALY":260.4521,"EPHEMERIS_TYPE":0,"CLASSIFICATION_TYPE":"U","NORAD_CAT_ID":48233,"ELEMENT_SET_NO":999,"REV_AT_EPOCH":21499,"BSTAR":-0.00047604,"MEAN_MOTION_DOT":-1.64e-6,"MEAN_MOTION_DDOT":0}]
